{"name":"John","streetAddress":"Doe","city":"Tuscaloosa","state":"AL","zip":"35406","memberNumber":0,"memberStatus":true}
{"name":"griffin","streetAddress":"mack","city":"clemmons","state":"nc","zip":"27012","memberNumber":0,"memberStatus":true}"\n"
{"name":"Griffin Mack","streetAddress":"1098 noneya","city":"tuscaloosa","state":"al","zip":"35473","memberNumber":0,"memberStatus":true}
{"name":"Ben","streetAddress":"512 North Lake Cove ","city":"Birmingham, AL","state":"AL","zip":"35242","memberNumber":0,"memberStatus":true}
{"name":"TestName TestName","streetAddress":"wherever the wind takes me","city":"Whoville","state":"Depressed","zip":"90210","memberNumber":0,"memberStatus":true}
{"name":"Ben","streetAddress":"Bruh","city":"do","state":"not","zip":"do","memberNumber":0,"memberStatus":true}
{"name":"Topher","streetAddress":"Candycorn Lane","city":"North Pole","state":"Alaska","zip":"0","memberNumber":0,"memberStatus":true}
{"name":"Yolo","streetAddress":"U","city":"uh","state":"bruh","zip":"wah","memberNumber":0,"memberStatus":true}
{"name":"1","streetAddress":"1","city":"1","state":"1","zip":"1","memberNumber":0,"memberStatus":true}
{"name":"Tophs","streetAddress":"here","city":"here","state":"here","zip":"bruh here","memberNumber":0,"memberStatus":true}